{"type": "FeatureCollection", "features": [ {"type": "Feature", "properties": {"norad_id": 40118, "name": "GAOFEN-2", "group": "resource", "lat": -81.95389877827034, "lon": 145.93283858540454, "alt_km": 640.8394481697942, "timestamp": "2025-12-21T05:44:51.232942+00:00", "meta": {"OBJECT_NAME": "GAOFEN-2", "OBJECT_ID": "2014-049A", "EPOCH": "2025-12-20T22:02:43.292832", "MEAN_MOTION": 14.80620072, "ECCENTRICITY": 0.00087343, "INCLINATION": 98.038, "RA_OF_ASC_NODE": 54.1014, "ARG_OF_PERICENTER": 90.4018, "MEAN_ANOMALY": 269.8195, "EPHEMERIS_TYPE": 0, "CLASSIFICATION_TYPE": "U", "NORAD_CAT_ID": 40118, "ELEMENT_SET_NO": 999, "REV_AT_EPOCH": 61285, "BSTAR": 2.8791663e-05, "MEAN_MOTION_DOT": 1.67e-06, "MEAN_MOTION_DDOT": 0}, "tle": {"line1": "1 40118U 14049A   25354.91855663  .00000167  00000+0  28792-4 0  9999", "line2": "2 40118  98.0380  54.1014 0008734  90.4018 269.8195 14.80620072612855"}}, "geometry": {"type": "Point", "coordinates": [145.93283858540454, -81.95389877827034]}}, {"type": "Feature", "properties": {"norad_id": 40143, "name": "YAOGAN-21", "group": "resource", "lat": 68.9785561015509, "lon": -122.68221124913836, "alt_km": 488.4364661635682, "timestamp": "2025-12-21T05:44:51.232952+00:00", "meta": {"OBJECT_NAME": "YAOGAN-21", "OBJECT_ID": "2014-053A", "EPOCH": "2025-12-20T22:57:49.622976", "MEAN_MOTION": 15.23749439, "ECCENTRICITY": 0.00089812, "INCLINATION": 97.1747, "RA_OF_ASC_NODE": 37.9125, "ARG_OF_PERICENTER": 15.4621, "MEAN_ANOMALY": 344.689, "EPHEMERIS_TYPE": 0, "CLASSIFICATION_TYPE": "U", "NORAD_CAT_ID": 40143, "ELEMENT_SET_NO": 999, "REV_AT_EPOCH": 62779, "BSTAR": 8.1887467e-05, "MEAN_MOTION_DOT": 1.903e-05, "MEAN_MOTION_DDOT": 0}, "tle": {"line1": "1 40143U 14053A   25354.95682434  .00001903  00000+0  81887-4 0  9993", "line2": "2 40143  97.1747  37.9125 0008981  15.4621 344.6890 15.23749439627793"}}, "geometry": {"type": "Point", "coordinates": [-122.68221124913836, 68.9785561015509]}}, {"type": "Feature", "properties": {"norad_id": 40275, "name": "YAOGAN-22", "group": "resource", "lat": 62.77633235289002, "lon": 117.12494379176114, "alt_km": 1199.9919686433914, "timestamp": "2025-12-21T05:44:51.232963+00:00", "meta": {"OBJECT_NAME": "YAOGAN-22", "OBJECT_ID": "2014-063A", "EPOCH": "2025-12-20T16:38:31.747200", "MEAN_MOTION": 13.15522924, "ECCENTRICITY": 0.0006025, "INCLINATION": 100.7427, "RA_OF_ASC_NODE": 138.2254, "ARG_OF_PERICENTER": 229.0888, "MEAN_ANOMALY": 130.9702, "EPHEMERIS_TYPE": 0, "CLASSIFICATION_TYPE": "U", "NORAD_CAT_ID": 40275, "ELEMENT_SET_NO": 999, "REV_AT_EPOCH": 53634, "BSTAR": 1.3459364e-05, "MEAN_MOTION_DOT": -4.2e-07, "MEAN_MOTION_DDOT": 0}, "tle": {"line1": "1 40275U 14063A   25354.69342300 -.00000042  00000+0  13459-4 0  9990", "line2": "2 40275 100.7427 138.2254 0006025 229.0888 130.9702 13.15522924536343"}}, "geometry": {"type": "Point", "coordinates": [117.12494379176114, 62.77633235289002]}}, {"type": "Feature", "properties": {"norad_id": 40298, "name": "ASNARO", "group": "resource", "lat": 30.787259449635208, "lon": 66.5588317336534, "alt_km": 503.8234341773705, "timestamp": "2025-12-21T05:44:51.232973+00:00", "meta": {"OBJECT_NAME": "ASNARO", "OBJECT_ID": "2014-070A", "EPOCH": "2025-12-20T21:42:34.775424", "MEAN_MOTION": 15.19644581, "ECCENTRICITY": 0.00057031, "INCLINATION": 97.3649, "RA_OF_ASC_NODE": 70.652, "ARG_OF_PERICENTER": 99.8359, "MEAN_ANOMALY": 260.352, "EPHEMERIS_TYPE": 0, "CLASSIFICATION_TYPE": "U", "NORAD_CAT_ID": 40298, "ELEMENT_SET_NO": 999, "REV_AT_EPOCH": 61693, "BSTAR": 0.00024576115, "MEAN_MOTION_DOT": 5.174e-05, "MEAN_MOTION_DDOT": 0}, "tle": {"line1": "1 40298U 14070A   25354.90456916  .00005174  00000+0  24576-3 0  9997", "line2": "2 40298  97.3649  70.6520 0005703  99.8359 260.3520 15.19644581616938"}}, "geometry": {"type": "Point", "coordinates": [66.5588317336534, 30.787259449635208]}}, {"type": "Feature", "properties": {"norad_id": 40310, "name": "YAOGAN-24", "group": "resource", "lat": 60.68262545771748, "lon": -38.88875415376053, "alt_km": 624.91404495595, "timestamp": "2025-12-21T05:44:51.232982+00:00", "meta": {"OBJECT_NAME": "YAOGAN-24", "OBJECT_ID": "2014-072A", "EPOCH": "2025-12-20T22:42:27.319392", "MEAN_MOTION": 14.76193906, "ECCENTRICITY": 0.00151084, "INCLINATION": 98.1225, "RA_OF_ASC_NODE": 126.0833, "ARG_OF_PERICENTER": 113.3535, "MEAN_ANOMALY": 246.9265, "EPHEMERIS_TYPE": 0, "CLASSIFICATION_TYPE": "U", "NORAD_CAT_ID": 40310, "ELEMENT_SET_NO": 999, "REV_AT_EPOCH": 59742, "BSTAR": 0.00015689102, "MEAN_MOTION_DOT": 1.034e-05, "MEAN_MOTION_DDOT": 0}, "tle": {"line1": "1 40310U 14072A   25354.94614953  .00001034  00000+0  15689-3 0  9991", "line2": "2 40310  98.1225 126.0833 0015108 113.3535 246.9265 14.76193906597423"}}, "geometry": {"type": "Point", "coordinates": [-38.88875415376053, 60.68262545771748]}}, {"type": "Feature", "properties": {"norad_id": 40336, "name": "CBERS 4", "group": "resource", "lat": 55.225610778704265, "lon": 40.78384532604402, "alt_km": 767.1731182800231, "timestamp": "2025-12-21T05:44:51.232993+00:00", "meta": {"OBJECT_NAME": "CBERS 4", "OBJECT_ID": "2014-079A", "EPOCH": "2025-12-20T22:47:44.723616", "MEAN_MOTION": 14.35519563, "ECCENTRICITY": 0.00018186, "INCLINATION": 98.3302, "RA_OF_ASC_NODE": 52.6858, "ARG_OF_PERICENTER": 103.5089, "MEAN_ANOMALY": 256.63, "EPHEMERIS_TYPE": 0, "CLASSIFICATION_TYPE": "U", "NORAD_CAT_ID": 40336, "ELEMENT_SET_NO": 999, "REV_AT_EPOCH": 57838, "BSTAR": -3.8480827e-05, "MEAN_MOTION_DOT": -1.53e-06, "MEAN_MOTION_DDOT": 0}, "tle": {"line1": "1 40336U 14079A   25354.94982319 -.00000153  00000+0 -38481-4 0  9999", "line2": "2 40336  98.3302  52.6858 0001818 103.5089 256.6300 14.35519563578386"}}, "geometry": {"type": "Point", "coordinates": [40.78384532604402, 55.225610778704265]}}, {"type": "Feature", "properties": {"norad_id": 40362, "name": "YAOGAN-26", "group": "resource", "lat": -54.61792122789728, "lon": 5.666632467645706, "alt_km": 452.75661731106993, "timestamp": "2025-12-21T05:44:51.233003+00:00", "meta": {"OBJECT_NAME": "YAOGAN-26", "OBJECT_ID": "2014-088A", "EPOCH": "2025-12-20T22:11:14.740224", "MEAN_MOTION": 15.39562672, "ECCENTRICITY": 0.00049879, "INCLINATION": 97.0637, "RA_OF_ASC_NODE": 355.3072, "ARG_OF_PERICENTER": 5.8502, "MEAN_ANOMALY": 354.2802, "EPHEMERIS_TYPE": 0, "CLASSIFICATION_TYPE": "U", "NORAD_CAT_ID": 40362, "ELEMENT_SET_NO": 999, "REV_AT_EPOCH": 61020, "BSTAR": 0.00028514141, "MEAN_MOTION_DOT": 0.00011143, "MEAN_MOTION_DDOT": 0}, "tle": {"line1": "1 40362U 14088A   25354.92447616  .00011143  00000+0  28514-3 0  9996", "line2": "2 40362  97.0637 355.3072 0004987   5.8502 354.2802 15.39562672610201"}}, "geometry": {"type": "Point", "coordinates": [5.666632467645706, -54.61792122789728]}}, {"type": "Feature", "properties": {"norad_id": 40376, "name": "SMAP", "group": "resource", "lat": 28.87097057976519, "lon": -4.679136313057694, "alt_km": 680.600568224786, "timestamp": "2025-12-21T05:44:51.233013+00:00", "meta": {"OBJECT_NAME": "SMAP", "OBJECT_ID": "2015-003A", "EPOCH": "2025-12-20T23:03:01.476000", "MEAN_MOTION": 14.63354368, "ECCENTRICITY": 0.0001225, "INCLINATION": 98.1288, "RA_OF_ASC_NODE": 359.5658, "ARG_OF_PERICENTER": 91.4084, "MEAN_ANOMALY": 268.7258, "EPHEMERIS_TYPE": 0, "CLASSIFICATION_TYPE": "U", "NORAD_CAT_ID": 40376, "ELEMENT_SET_NO": 999, "REV_AT_EPOCH": 58155, "BSTAR": 7.9994354e-05, "MEAN_MOTION_DOT": 3.66e-06, "MEAN_MOTION_DDOT": 0}, "tle": {"line1": "1 40376U 15003A   25354.96043375  .00000366  00000+0  79994-4 0  9991", "line2": "2 40376  98.1288 359.5658 0001225  91.4084 268.7258 14.63354368581550"}}, "geometry": {"type": "Point", "coordinates": [-4.679136313057694, 28.87097057976519]}}, {"type": "Feature", "properties": {"norad_id": 40536, "name": "KOMPSAT-3A", "group": "resource", "lat": 27.484143751510494, "lon": -33.96824576532288, "alt_km": 431.9350934987797, "timestamp": "2025-12-21T05:44:51.233023+00:00", "meta": {"OBJECT_NAME": "KOMPSAT-3A", "OBJECT_ID": "2015-014A", "EPOCH": "2025-12-20T21:51:06.570144", "MEAN_MOTION": 15.44222672, "ECCENTRICITY": 0.00054724, "INCLINATION": 97.6794, "RA_OF_ASC_NODE": 329.7096, "ARG_OF_PERICENTER": 108.6014, "MEAN_ANOMALY": 251.5828, "EPHEMERIS_TYPE": 0, "CLASSIFICATION_TYPE": "U", "NORAD_CAT_ID": 40536, "ELEMENT_SET_NO": 999, "REV_AT_EPOCH": 59421, "BSTAR": 0.0002924034, "MEAN_MOTION_DOT": 0.00013346, "MEAN_MOTION_DDOT": 0}, "tle": {"line1": "1 40536U 15014A   25354.91049271  .00013346  00000+0  29240-3 0  9997", "line2": "2 40536  97.6794 329.7096 0005472 108.6014 251.5828 15.44222672594213"}}, "geometry": {"type": "Point", "coordinates": [-33.96824576532288, 27.484143751510494]}}, {"type": "Feature", "properties": {"norad_id": 40697, "name": "SENTINEL-2A", "group": "resource", "lat": -16.273807440846383, "lon": 70.17712687886095, "alt_km": 794.0089922947136, "timestamp": "2025-12-21T05:44:51.233033+00:00", "meta": {"OBJECT_NAME": "SENTINEL-2A", "OBJECT_ID": "2015-028A", "EPOCH": "2025-12-20T23:06:39.578976", "MEAN_MOTION": 14.30808031, "ECCENTRICITY": 0.00010836, "INCLINATION": 98.5743, "RA_OF_ASC_NODE": 67.3801, "ARG_OF_PERICENTER": 88.5272, "MEAN_ANOMALY": 271.6035, "EPHEMERIS_TYPE": 0, "CLASSIFICATION_TYPE": "U", "NORAD_CAT_ID": 40697, "ELEMENT_SET_NO": 999, "REV_AT_EPOCH": 54824, "BSTAR": 3.9200063e-05, "MEAN_MOTION_DOT": 5.9e-07, "MEAN_MOTION_DDOT": 0}, "tle": {"line1": "1 40697U 15028A   25354.96295809  .00000059  00000+0  39200-4 0  9990", "line2": "2 40697  98.5743  67.3801 0001083  88.5272 271.6035 14.30808031548248"}}, "geometry": {"type": "Point", "coordinates": [70.17712687886095, -16.273807440846383]}}]}